OBJECT_NAME,OBJECT_ID,EPOCH,MEAN_MOTION,ECCENTRICITY,INCLINATION,RA_OF_ASC_NODE,ARG_OF_PERICENTER,MEAN_ANOMALY,EPHEMERIS_TYPE,CLASSIFICATION_TYPE,NORAD_CAT_ID,ELEMENT_SET_NO,REV_AT_EPOCH,BSTAR,MEAN_MOTION_DOT,MEAN_MOTION_DDOT
HAWK-5A,2022-057AB,2026-07-14T23:07:45.682752,15.52318484,.0003374,97.6620,356.6297,338.7634,21.3477,0,U,52757,999,23065,.17848E-3,.10758E-3,0
HAWK-6B,2023-011A,2026-07-15T04:21:56.756160,15.23153117,.0004203,40.4970,188.7567,240.4077,119.6314,0,U,55324,999,19211,.11008E-3,.246E-4,0
HAWK-6C,2023-011C,2026-07-15T04:21:02.212704,15.23154648,.00047,40.4961,185.5963,233.4857,126.5520,0,U,55326,999,19212,.10294E-3,.2287E-4,0
HAWK-6A,2023-011D,2026-07-15T04:21:05.436288,15.23154209,.0004263,40.4970,187.2230,230.8343,129.2088,0,U,55327,999,19212,.1073E-3,.2392E-4,0
HAWK-7A,2023-054P,2026-07-15T03:33:12.023712,15.27631920,.0001406,97.2664,82.7746,333.8791,26.2378,0,U,56191,999,18129,.11393E-3,.3005E-4,0
HAWK-7B,2023-054R,2026-07-15T03:33:06.064704,15.27630278,.0001315,97.2690,81.0483,17.2698,342.8586,0,U,56193,999,18129,.11457E-3,.3022E-4,0
HAWK-7C,2023-054Y,2026-07-15T03:32:55.428864,15.27632872,.0000929,97.2666,81.8085,355.9944,4.1288,0,U,56200,999,18129,.11138E-3,.2936E-4,0
