HAWK-5A                 
1 52757U 22057AB  26195.96372318  .00010758  00000+0  17848-3 0  9995
2 52757  97.6620 356.6297 0003374 338.7634  21.3477 15.52318484230658
HAWK-6B                 
1 55324U 23011A   26196.18190690  .00002460  00000+0  11008-3 0  9998
2 55324  40.4970 188.7567 0004203 240.4077 119.6314 15.23153117192118
HAWK-6C                 
1 55326U 23011C   26196.18127561  .00002287  00000+0  10294-3 0  9990
2 55326  40.4961 185.5963 0004700 233.4857 126.5520 15.23154648192122
HAWK-6A                 
1 55327U 23011D   26196.18131292  .00002392  00000+0  10730-3 0  9999
2 55327  40.4970 187.2230 0004263 230.8343 129.2088 15.23154209192126
HAWK-7A                 
1 56191U 23054P   26196.14805583  .00003005  00000+0  11393-3 0  9991
2 56191  97.2664  82.7746 0001406 333.8791  26.2378 15.27631920181292
HAWK-7B                 
1 56193U 23054R   26196.14798686  .00003022  00000+0  11457-3 0  9998
2 56193  97.2690  81.0483 0001315  17.2698 342.8586 15.27630278181294
HAWK-7C                 
1 56200U 23054Y   26196.14786376  .00002936  00000+0  11138-3 0  9999
2 56200  97.2666  81.8085 0000929 355.9944   4.1288 15.27632872181297
